HIMAWARI-8              
1 40267U 14060A   24081.64626103 -.00000286  00000+0  00000+0 0  9998
2 40267   0.0240 198.2849 0001148 146.5311 208.1256  1.00271239 34560
